NORAD_CAT_ID,OBJECT_NAME,OBJECT_TYPE,EPOCH,MEAN_MOTION,ECCENTRICITY,INCLINATION,RA_OF_ASC_NODE,ARG_OF_PERICENTER,MEAN_ANOMALY,BSTAR,MEAN_MOTION_DOT,MEAN_MOTION_DDOT,TLE_LINE0,TLE_LINE1,TLE_LINE2,SEMIMAJOR_AXIS,PERIOD,APOGEE,PERIGEE,DECAYED
54760.0,STARLINK-5220,PAYLOAD,2023-09-27 05:34:26,15.08836299,0.0001296,53.2164,99.6822,91.4867,268.6273,6.2254e-05,7.03e-06,0.0,0 STARLINK-5220,1 54760U 22175C   23270.23224660  .00000703  00000-0  62254-4 0  9991,2 54760  53.2164  99.6822 0001296  91.4867 268.6273 15.08836299 44883,6917.892,95.438,540.653,538.86,0.0
54760.0,STARLINK-5220,PAYLOAD,2023-09-27 19:52:54,15.08845645,0.0001161,53.2155,97.0079,86.2173,273.8952,0.00026028,3.858e-05,0.0,0 STARLINK-5220,1 54760U 22175C   23270.82840485  .00003858  00000-0  26028-3 0  9997,2 54760  53.2155  97.0079 0001161  86.2173 273.8952 15.08845645 42810,6917.863,95.437,540.531,538.925,0.0
54760.0,STARLINK-5220,PAYLOAD,2023-09-27 21:28:17,15.08848634,0.0001173,53.2156,96.7104,87.5792,272.5334,0.00033118,4.988e-05,0.0,0 STARLINK-5220,1 54760U 22175C   23270.89464415  .00004988  00000-0  33118-3 0  9992,2 54760  53.2156  96.7104 0001173  87.5792 272.5334 15.08848634 44981,6917.854,95.437,540.53,538.908,0.0
54760.0,STARLINK-5220,PAYLOAD,2023-09-28 18:08:18,15.08843,0.0001168,53.2157,92.8443,77.2613,282.851,0.00027411,4.078e-05,0.0,0 STARLINK-5220,1 54760U 22175C   23271.75576694  .00004078  00000-0  27411-3 0  9990,2 54760  53.2157  92.8443 0001168  77.2613 282.8510 15.08843000 42954,6917.871,95.437,540.544,538.928,0.0
54760.0,STARLINK-5220,PAYLOAD,2023-09-28 21:19:03,15.08854671,9.86e-05,53.2153,92.2502,92.2673,267.8432,-0.00011641,-2.141e-05,0.0,0 STARLINK-5220,1 54760U 22175C   23271.88823833 -.00002141  00000-0 -11641-3 0  9993,2 54760  53.2153  92.2502 0000986  92.2673 267.8432 15.08854671 45135,6917.836,95.437,540.383,539.018,0.0
54760.0,STARLINK-5220,PAYLOAD,2023-09-29 11:37:32,15.08844471,0.0001178,53.2153,89.5732,88.5031,271.6096,0.0001217,1.65e-05,0.0,0 STARLINK-5220,1 54760U 22175C   23272.48440418  .00001650  00000-0  12170-3 0  9994,2 54760  53.2153  89.5732 0001178  88.5031 271.6096 15.08844471 43065,6917.867,95.437,540.547,538.917,0.0
54760.0,STARLINK-5220,PAYLOAD,2023-09-29 19:34:28,15.08847525,0.0001314,53.2156,88.0875,76.6699,283.4439,0.00013277,1.826e-05,0.0,0 STARLINK-5220,1 54760U 22175C   23272.81560301  .00001826  00000-0  13277-3 0  9999,2 54760  53.2156  88.0875 0001314  76.6699 283.4439 15.08847525 45270,6917.857,95.437,540.631,538.813,0.0
54760.0,STARLINK-5220,PAYLOAD,2023-09-30 17:49:52,15.08844189,0.000114,53.2157,83.9243,89.9918,270.1205,0.00010807,1.433e-05,0.0,0 STARLINK-5220,1 54760U 22175C   23273.74296379  .00001433  00000-0  10807-3 0  9993,2 54760  53.2157  83.9243 0001140  89.9918 270.1205 15.08844189 43255,6917.868,95.437,540.521,538.944,0.0
54760.0,STARLINK-5220,PAYLOAD,2023-10-01 11:19:06,15.08845237,0.0001248,53.216,80.6524,92.5436,267.5699,0.0001223,1.659e-05,0.0,0 STARLINK-5220,1 54760U 22175C   23274.47160272  .00001659  00000-0  12230-3 0  9998,2 54760  53.2160  80.6524 0001248  92.5436 267.5699 15.08845237 45523,6917.864,95.437,540.593,538.866,0.0
54760.0,STARLINK-5220,PAYLOAD,2023-10-01 17:40:38,15.08850801,0.0001327,53.2174,79.463,89.1885,270.9259,0.00014567,2.032e-05,0.0,0 STARLINK-5220,1 54760U 22175C   23274.73655842  .00002032  00000-0  14567-3 0  9990,2 54760  53.2174  79.4630 0001327  89.1885 270.9259 15.08850801 45567,6917.847,95.437,540.63,538.794,0.0
54760.0,STARLINK-5220,PAYLOAD,2023-10-02 11:09:53,15.08834399,0.0001298,53.2182,76.1921,95.5083,264.6057,0.00027934,4.16e-05,0.0,0 STARLINK-5220,1 54760U 22175C   23275.46520580  .00004160  00000-0  27934-3 0  9997,2 54760  53.2182  76.1921 0001298  95.5083 264.6057 15.08834399 43514,6917.898,95.438,540.66,538.865,0.0
54760.0,STARLINK-5220,PAYLOAD,2023-10-02 15:56:03,15.08838802,0.0001376,53.2176,75.3022,72.5035,287.6108,7.1199e-05,8.45e-06,0.0,0 STARLINK-5220,1 54760U 22175C   23275.66392496  .00000845  00000-0  71199-4 0  9991,2 54760  53.2176  75.3022 0001376  72.5035 287.6108 15.08838802 45707,6917.884,95.438,540.701,538.797,0.0
54760.0,STARLINK-5220,PAYLOAD,2023-10-03 14:11:27,15.08837538,0.0001348,53.2185,71.1386,90.8513,269.2634,5.0956e-06,-2.07e-06,0.0,0 STARLINK-5220,1 54760U 22175C   23276.59128855 -.00000207  00000-0  50956-5 0  9992,2 54760  53.2185  71.1386 0001348  90.8513 269.2634 15.08837538 45847,6917.888,95.438,540.685,538.82,0.0
54760.0,STARLINK-5220,PAYLOAD,2023-10-03 17:22:13,15.08843068,0.0001383,53.2185,70.5435,88.2476,271.8675,3.0727e-05,2.01e-06,0.0,0 STARLINK-5220,1 54760U 22175C   23276.72376430  .00000201  00000-0  30727-4 0  9997,2 54760  53.2185  70.5435 0001383  88.2476 271.8675 15.08843068 43705,6917.871,95.437,540.693,538.779,0.0
54760.0,STARLINK-5220,PAYLOAD,2023-10-04 10:51:28,15.08837024,0.0001417,53.2185,67.2731,90.7872,269.3283,7.5857e-05,9.19e-06,0.0,0 STARLINK-5220,1 54760U 22175C   23277.45240870  .00000919  00000-0  75857-4 0  9995,2 54760  53.2185  67.2731 0001417  90.7872 269.3283 15.08837024 43817,6917.889,95.438,540.735,538.774,0.0
54760.0,STARLINK-5220,PAYLOAD,2023-10-04 14:02:14,15.08841214,0.0001446,53.2189,66.6787,90.6646,269.4512,0.00011327,1.515e-05,0.0,0 STARLINK-5220,1 54760U 22175C   23277.58488508  .00001515  00000-0  11327-3 0  9995,2 54760  53.2189  66.6787 0001446  90.6646 269.4512 15.08841214 45998,6917.877,95.437,540.742,538.741,0.0
54760.0,STARLINK-5220,PAYLOAD,2023-10-04 17:13:00,15.0884489,0.0001447,53.2191,66.085,92.9878,267.128,0.00013798,1.909e-05,0.0,0 STARLINK-5220,1 54760U 22175C   23277.71736261  .00001909  00000-0  13798-3 0  9993,2 54760  53.2191  66.0850 0001447  92.9878 267.1280 15.08844890 43852,6917.865,95.437,540.731,538.729,0.0
54760.0,STARLINK-5220,PAYLOAD,2023-10-05 09:06:52,15.08840126,0.0001908,53.2191,63.1106,86.9322,273.1888,0.0001081,1.433e-05,0.0,0 STARLINK-5220,1 54760U 22175C   23278.37976896  .00001433  00000-0  10810-3 0  9990,2 54760  53.2191  63.1106 0001908  86.9322 273.1888 15.08840126 43953,6917.88,95.438,541.065,538.425,0.0
54760.0,STARLINK-5220,PAYLOAD,2023-10-05 13:53:01,15.08830884,0.0001662,53.22,62.2195,93.9708,266.1474,-8.1224e-05,-1.58e-05,0.0,0 STARLINK-5220,1 54760U 22175C   23278.57849071 -.00001580  00000-0 -81224-4 0  9999,2 54760  53.2200  62.2195 0001662  93.9708 266.1474 15.08830884 46142,6917.908,95.438,540.923,538.623,0.0
54760.0,STARLINK-5220,PAYLOAD,2023-10-05 17:03:47,15.08837714,0.0001596,53.2193,61.6231,84.8449,275.2725,4.6504e-05,4.52e-06,0.0,0 STARLINK-5220,1 54760U 22175C   23278.71097086  .00000452  00000-0  46504-4 0  9993,2 54760  53.2193  61.6231 0001596  84.8449 275.2725 15.08837714 46165,6917.887,95.438,540.856,538.648,0.0
54760.0,STARLINK-5220,PAYLOAD,2023-10-06 10:33:03,15.08833773,0.0001482,53.2193,58.3519,89.7263,270.3899,-5.0282e-05,-1.088e-05,0.0,0 STARLINK-5220,1 54760U 22175C   23279.43961896 -.00001088  00000-0 -50282-4 0  9998,2 54760  53.2193  58.3519 0001482  89.7263 270.3899 15.08833773 44111,6917.899,95.438,540.79,538.739,0.0
54760.0,STARLINK-5220,PAYLOAD,2023-10-06 13:43:49,15.08838452,0.0001384,53.2193,57.7569,94.368,265.747,-2.8098e-05,-7.35e-06,0.0,0 STARLINK-5220,1 54760U 22175C   23279.57209528 -.00000735  00000-0 -28098-4 0  9998,2 54760  53.2193  57.7569 0001384  94.3680 265.7470 15.08838452 46298,6917.885,95.438,540.708,538.793,0.0
54760.0,STARLINK-5220,PAYLOAD,2023-10-06 16:54:35,15.08843014,0.000144,53.2193,57.162,90.7372,269.3785,1.3893e-05,-6.7e-07,0.0,0 STARLINK-5220,1 54760U 22175C   23279.70457179 -.00000067  00000-0  13893-4 0  9994,2 54760  53.2193  57.1620 0001440  90.7372 269.3785 15.08843014 44153,6917.871,95.437,540.732,538.74,0.0
54760.0,STARLINK-5220,PAYLOAD,2023-10-07 13:34:35,15.08841467,0.0001629,53.2196,53.2974,87.137,272.9809,0.00018116,2.596e-05,0.0,0 STARLINK-5220,1 54760U 22175C   23280.56569086  .00002596  00000-0  18116-3 0  9991,2 54760  53.2196  53.2974 0001629  87.1370 272.9809 15.08841467 46443,6917.876,95.437,540.868,538.614,0.0
54760.0,STARLINK-5220,PAYLOAD,2023-10-07 16:45:21,15.08847843,0.0001493,53.2187,52.7032,70.2994,289.8159,0.00021879,3.197e-05,0.0,0 STARLINK-5220,1 54760U 22175C   23280.69816679  .00003197  00000-0  21879-3 0  9996,2 54760  53.2187  52.7032 0001493  70.2994 289.8159 15.08847843 46467,6917.856,95.437,540.754,538.689,0.0
54760.0,STARLINK-5220,PAYLOAD,2023-10-08 13:25:22,15.08844117,0.0001531,53.2182,48.8362,96.9582,263.1584,0.00014216,1.975e-05,0.0,0 STARLINK-5220,1 54760U 22175C   23281.55929080  .00001975  00000-0  14216-3 0  9992,2 54760  53.2182  48.8362 0001531  96.9582 263.1584 15.08844117 46597,6917.868,95.437,540.792,538.674,0.0
54760.0,STARLINK-5220,PAYLOAD,2023-10-08 18:11:31,15.0884929,0.0001639,53.218,47.9433,84.8686,275.2493,0.00020157,2.922e-05,0.0,0 STARLINK-5220,1 54760U 22175C   23281.75800909  .00002922  00000-0  20157-3 0  9996,2 54760  53.2180  47.9433 0001639  84.8686 275.2493 15.08849290 44468,6917.852,95.437,540.851,538.583,0.0
54760.0,STARLINK-5220,PAYLOAD,2023-10-09 02:08:28,15.08840811,0.0001433,53.2181,46.4588,82.2194,277.8961,6.8844e-05,8.08e-06,0.0,0 STARLINK-5220,1 54760U 22175C   23282.08921531  .00000808  00000-0  68844-4 0  9995,2 54760  53.2181  46.4588 0001433  82.2194 277.8961 15.08840811 44516,6917.878,95.438,540.734,538.752,0.0
54760.0,STARLINK-5220,PAYLOAD,2023-10-09 14:51:33,15.08841055,0.0001664,53.2187,44.0787,91.249,268.8693,6.7541e-05,7.87e-06,0.0,0 STARLINK-5220,1 54760U 22175C   23282.61913293  .00000787  00000-0  67541-4 0  9999,2 54760  53.2187  44.0787 0001664  91.2490 268.8693 15.08841055 46753,6917.877,95.437,540.893,538.591,0.0
54760.0,STARLINK-5220,PAYLOAD,2023-10-10 08:20:47,15.08850105,0.0001797,53.2191,40.8077,88.7858,271.334,3.138e-05,2.11e-06,0.0,0 STARLINK-5220,1 54760U 22175C   23283.34776883  .00000211  00000-0  31380-4 0  9996,2 54760  53.2191  40.8077 0001797  88.7858 271.3340 15.08850105 44707,6917.85,95.437,540.958,538.471,0.0
